id,FullName,Address,city,state,zip,title_code
1,"Santiago-Johnson, Theron",1 Logan Dr. ,Merrillville,IN,46410,Br
2,"Marks, Hershel Stephen,, Jr.",1 North Plymouth Street ,Ambler,PA,19002,Rb
3,"Hayden, Stephen Andrew,, II",1 Thatcher Ave. ,Brookline,MA,02446,Mr
4,"Mitchell, Curtis-John Steven,, III",104 Lantern St. ,Ankeny,IA,50023,Mr
5,"Shabadoo, Joey Jo-Jo,, Jr",104 Redwood Street ,Lincoln Park,MI,48146,
6,"Reese, Benton",11 N. Summit Ave. ,New Berlin,WI,53151,
7,"Knight, Marty",114 Glen Creek Ave. ,Waldorf,MD,20601,
8,"Suarez, Fletcher",116 Ohio Street ,Severn,MD,21144,
9,"Hinton, Garland",12 West Hall Ave. ,Orchard Park,NY,14127,
10,"Cline, Chris",124 Thomas Avenue ,Avon Lake,OH,44012,
11,"Hopkins, Jefferey",13 6th Dr. ,Newington,CT,06111,
12,"Cruz, Mary",13 Studebaker St. ,Sacramento,CA,95820,
13,"Duran, Rodolfo",14 Arlington Ave. ,Apex,NC,27502,
14,"Barnes, Maynard",14 Cobblestone St. ,Madison Heights,MI,48071,
15,"Mcclain, Burt",14 Lincoln Drive ,Kernersville,NC,27284,
16,"Hines, Harris",142 Aspen Street ,Graham,NC,27253,
17,"Cooley, Stanford",147 Bohemia Street ,Beverly,MA,01915,
18,"McClain, Ulysses",148 Ocean Street ,Palm Harbor,FL,34683,
19,"Slater, Jean",15 East Mayfield Lane ,Hopewell Junction,NY,12533,
20,"Johnston, Winford",15 Golf Rd. ,Brick,NJ,08723,
21,"James, Clint",15 Market Dr. ,Glenside,PA,19038,
22,"Lynch, Porfirio",16 Alderwood St. ,Flint,MI,48504,
23,"Puckett, Raymundo",16 Bay Meadows Street ,Galloway,OH,43119,
24,"Larsen, Brady",16 Brookside Street ,Oconomowoc,WI,53066,
25,"Woods, Ferdinand",16 Ryan Ave. ,Northville,MI,48167,
26,"Lamb, Heriberto",163 Richardson St. ,San Carlos,CA,94070,
27,"Russo, Kasey",167 Plymouth Avenue ,Tuckerton,NJ,08087,
28,"Farrell, Jame",171 Smoky Hollow Court ,Crystal Lake,IL,60014,
29,"Everett, Dustin",175 W. Helen Lane ,Crofton,MD,21114,
30,"Callahan, Ernest",181 S. Carriage St. ,Yonkers,NY,10701,
31,"Justice, Loyd",182 Greenrose Street ,Tualatin,OR,97062,
32,"Boone, Nicolas",188 Garden Rd. ,Clermont,FL,34711,
33,"White, Antonia",189 Rockaway Lane ,Rolling Meadows,IL,60008,
34,"Hubbard, Loyd",19 East Old York Dr. ,Camas,WA,98607,
35,"Emerson, Maximo",192 Homestead Ave. ,Milford,MA,01757,
36,"Shaw, Claudio",195 Fieldstone Court ,Grand Forks,ND,58201,
37,"Houston, Cornelius",2 Creek Drive ,Calhoun,GA,30701,
38,"Beck, Jarvis",2 Glen Ridge Avenue ,Fargo,ND,58102,
39,"Berry, Young",2 Rock Creek St. ,Neptune,NJ,07753,
40,"Cox, Garth",2 S. Penn Dr. ,Sylvania,OH,43560,
41,"Durham, Timothy",2 W. Whitemarsh St. ,Rocky Mount,NC,27804,
42,Saudi Aramco,20 Franklin Ave. ,Auburndale,FL,33823,
43,"Roy, Gonzalo",20 Theatre Drive ,Hollis,NY,11423,
44,"Kent, Hayden",20 W. Old York Street ,Norman,OK,73072,
45,"Rasmussen, Vernon",201 Bowman Rd. ,Sheboygan,WI,53081,
46,"Kirkland, Vince",201 South Fordham Dr. ,Piqua,OH,45356,
47,"Ellison, Grover",208 Cedar Swamp Street ,Marion,NC,28752,
48,"Faulkner, Waylon",208 South Winchester Ave. ,Columbia,MD,21044,
49,"Greene, Harland",21 Coffee Court ,Dubuque,IA,52001,
50,"Kennedy, Angelo",218 N. Arlington Drive ,Ladson,SC,29456,
51,"Foreman, Garth",22 Gonzales Court ,Atlantic City,NJ,08401,
52,"Bentley, Monte",22 Roosevelt Avenue ,Stevens Point,WI,54481,
53,"Wade, Mitch",22 Smith Store St. ,Oxford,MS,38655,
54,"Lyons, Alphonso",227 SW. Gregory St. ,Danville,VA,24540,
55,"Prince, Hobert",23 Buckingham Street ,Saint Petersburg,FL,33702,
56,"Francis, Melvin",23 Sherwood Ave. ,Ridgefield,CT,06877,
57,"Soto, Ronny",232 East Cemetery St. ,Pittsburgh,PA,15206,
58,"Greer, Laurence",238 Grandrose Court ,Elizabeth City,NC,27909,
59,"Hines, Andrew",24 Grandrose St. ,Middletown,CT,06457,
60,"Lowe, Sung",24 Wrangler Court ,Plainfield,NJ,07060,
61,"Marquez, Fletcher",248 Ashley Street ,Henrico,VA,23228,
62,"Drake, Nathanael",250 Sunbeam St. ,Roslindale,MA,02131,
63,"Farrell, Randal",251 Mammoth Court ,Newport News,VA,23601,
64,"Dodson, Roscoe",256 Glenwood Lane ,Butler,PA,16001,
65,"Fuentes, Zachery",26 3rd Ave. ,Upland,CA,91784,
66,"Jackson, Donovan",26 Forest Ave. ,Lorain,OH,44052,
67,"Bailey, Edmund",261 Ridgeview St. ,Lincolnton,NC,28092,
68,"Henry, Roman",265 West Clinton Court ,North Ridgeville,OH,44039,
69,"Richmond, Kirk",27 Addison Court ,Abingdon,MD,21009,
70,"Wiggins, Clinton",272 Bellevue Lane ,Independence,KY,41051,
71,"Fuentes, Kendrick",28 Bow Ridge St. ,Lemont,IL,60439,
72,"Valencia, Willie",28 Oxford St. ,Bear,DE,19701,
73,"Kim, Joaquin",28 West Paris Hill Drive ,Temple Hills,MD,20748,
74,"Fernandez, Martin",282 Ketch Harbour St. ,Lansdale,PA,19446,
75,"Summers, Maxwell",289 N. Pheasant Court ,Annapolis,MD,21401,
76,"Gomez, Wesley",289 West Fulton Road ,New Milford,CT,06776,
77,"Yates, Cyrus",29 Oak Valley St. ,Vista,CA,92083,
78,"Lawson, Byron",290 Westport Court ,Basking Ridge,NJ,07920,
79,"Cannon, Denis",294 Prospect Lane ,New Baltimore,MI,48047,
80,"Mayer, Don",295 East Sunset Ave. ,Loveland,OH,45140,
81,"Christensen, Colin",297 Beaver Ridge Street ,Lake Villa,IL,60046,
82,"Wilkerson, Lindsey",298 Wilson Drive ,Riverside,NJ,08075,
83,"Nichols, Kraig",3 Forest Ave. ,Portland,ME,04103,
84,"Kelley, Tyrone",3 Glen Eagles Street ,Harrisonburg,VA,22801,
85,"Livingston, Alvaro",3 N. Myers Ave. ,Victoria,TX,77904,
86,"Mcbride, Douglass",3 Randall Mill St. ,Philadelphia,PA,19111,
87,"Leonard, Roman",3 Water St. ,Chesterfield,VA,23832,
88,"Mayer, Doug",30 Bedford St. ,Whitestone,NY,11357,
89,"Guy, Maynard",300 Pulaski Street ,Pewaukee,WI,53072,
90,"Singleton, Sherman",302 Mulberry St. ,Union,NJ,07083,
91,"Clemons, Brock",31 Johnson St. ,Charlottesville,VA,22901,
92,"Johnston, Zackary",310 Cypress Court ,Omaha,NE,68107,
93,"Raymond, Salvatore",319 Buckingham Ave. ,Niceville,FL,32578,
94,"Kirby, Sid",32 Lakewood Dr. ,Windsor,CT,06095,
95,"Hartman, Nathanial",323 Birchwood Street ,Maumee,OH,43537,
96,"Molina, Landon",33 Beaver Ridge Drive ,Hallandale,FL,33009,
97,"Gillespie, Max",33 Gainsway Street ,Stow,OH,44224,
98,"Maynard, Hung",331 Henry St. ,Wayne,NJ,07470,
99,"Herrera, Nigel",332 Hudson St. ,Lutherville Timonium,MD,21093,
100,"Cannon, Christoper",336 Indian Summer Avenue ,Alexandria,VA,22304,
101,"Mcdaniel, Norbert",338 E. Garfield Street ,Medina,OH,44256,
102,"Gonzales, Vito",340 Wrangler St. ,Shrewsbury,MA,01545,
103,"Olson, Erwin",342 Mechanic St. ,Quincy,MA,02169,
104,"Zamora, Stacey",344 Maple Street ,Lake Mary,FL,32746,
105,"Whitney, Jerrod",35 Franklin Court ,Sykesville,MD,21784,
106,"Rogers, Reynaldo",356 Laurel Dr. ,Oceanside,NY,11572,
107,"Rowland, Ward",36 South Marsh Lane ,Traverse City,MI,49684,
108,"Tanner, Kris",368 Marconi Court ,Atwater,CA,95301,
109,"Hardy, Weston",37 Overlook Drive ,Dalton,GA,30721,
110,"Contreras, Donn",37 Trusel Street ,Cheshire,CT,06410,
111,"Mckenzie, Edgardo",38 High Ridge Street ,Elmont,NY,11003,
112,Taiwan Semiconductor Manufacturing Co. Ltd.,38 Ivy Drive ,Asbury Park,NJ,07712,
113,"Padilla, Hassan",38 Lawrence Street ,Sioux Falls,SD,57103,
114,"Cochran, Brock",38 Mountainview Street ,Dublin,GA,31021,
115,"Hobbs, Reginald",38 Orange Lane ,Mays Landing,NJ,08330,
116,"Cohen, Bo",380 Mayfair St. ,Canton,GA,30114,
117,"Dennis, Elmer",388 Walnutwood Street ,Mechanicsburg,PA,17050,
118,"Wolf, Gaylord",39 Elmwood Street ,West Haven,CT,06516,
119,"Peterson, Brad",393 Oakwood Dr. ,Rockford,MI,49341,
120,"Munoz, Solomon",394 NW. Bedford Drive ,Niagara Falls,NY,14304,
121,"Dalton, Linwood",398 Sulphur Springs St. ,Fond Du Lac,WI,54935,
122,"Christensen, Derek",4 10th St. ,Stuart,FL,34997,
123,"Carr, Marcelo",4 Holly Dr. ,Somerset,NJ,08873,
124,"Ruiz, Buford",4 Manor Station Street ,De Pere,WI,54115,
125,"Jensen, Ward",4 Maple Street ,Long Beach,NY,11561,
126,"Baldwin, Leopoldo",401 Highland Lane ,Greenville,NC,27834,
127,"Schneider, Charlie",405 N. Mill Pond St. ,Roseville,MI,48066,
128,"Bradford, Junior",405 Sage Ave. ,Levittown,NY,11756,
129,"Wiley, Santo",407 Princeton Ave. ,Long Branch,NJ,07740,
130,"Turner, Loren",41 Cottage St. ,Algonquin,IL,60102,
131,"Cummings, Bud",41 Peg Shop Court ,Concord,NH,03301,
132,"Holder, Mickey",412 Albany Street ,Colorado Springs,CO,80911,
133,"Morrow, Gino",43 South Marvon Road ,Hartselle,AL,35640,
134,"Lawson, Minh",43 Valley Farms St. ,Sanford,NC,27330,
135,"Branch, Jae",44 Cemetery Street ,Lakeland,FL,33801,
136,"Preston, Nolan",44 Linden St. ,Spartanburg,SC,29301,
137,"Hampton, Arden",447 Rockcrest Street ,Indiana,PA,15701,
138,"Henderson, Randell",449 South Elm St. ,Reno,NV,89523,
139,"Summers, Emmitt",45 East Fulton Ave. ,Tucson,AZ,85718,
140,"Slater, Giuseppe",45 Griffin St. ,Nicholasville,KY,40356,
141,"King, Myron",45 Ketch Harbour Street ,Meriden,CT,06450,
142,"Kramer, Galen",456 East Locust Lane ,Winter Springs,FL,32708,
143,"Cline, Merle",459 Deerfield Lane ,Emporia,KS,66801,
144,"Church, Thanh",46 Cactus Court ,Centreville,VA,20120,
145,"Barton, Wilson",46 Carpenter Street ,Eugene,OR,97402,
146,"Gentry, Eli",46 Essex Lane ,Commack,NY,11725,
147,"Strong, Houston",46 Mayflower St. ,Monsey,NY,10952,
148,"Greene, Vern",46 Middle River St. ,Depew,NY,14043,
149,"Stafford, Bobbie",46 New Street ,Vienna,VA,22180,
150,"Berry, Malcom",46 North Manchester Road ,Morristown,NJ,07960,
151,"Cote, Adan",47 East Rockcrest Drive ,Mcminnville,TN,37110,
152,"Oneil, Brant",470 Cactus Dr. ,San Pablo,CA,94806,
153,"Castillo, Santiago",471 White St. ,Boston,MA,02127,
154,"Aguilar, Tanner",48 Williams Avenue ,Mableton,GA,30126,
155,"Williams, Odell",481 SE. Wild Horse Court ,Auburn,NY,13021,
156,"Sullivan, Collin",483 Saxton Ave. ,New Lenox,IL,60451,
157,"Ayers, Clifton",487 Myrtle Dr. ,Watertown,MA,02472,
158,"Matthews, George",488 Somerset Avenue ,Johnson City,TN,37601,
159,"Black, Sylvester",49 Belmont Street ,Venice,FL,34293,
160,"Roach, Kris",49 Coffee Court ,Palm Bay,FL,32907,
161,"Daniels, Austin",49 East Glen Creek Rd. ,Wisconsin Rapids,WI,54494,
162,"Woodward, Ian",49 South Ridgewood St. ,Cantonment,FL,32533,
163,"Molina, Odis",4B East Kirkland Lane ,Chester,PA,19013,
164,"Rowland, Blaine",5 Buttonwood Street ,Hyattsville,MD,20782,
165,"Galloway, Jarvis",5 Corona Avenue ,Southfield,MI,48076,
166,"Morales, Andreas",5 Rockledge Street ,Cranberry Twp,PA,16066,
167,"Zamora, Jessie",5 Rosewood Court ,North Canton,OH,44720,
168,"Lester, Dewitt",5 W. Lookout Street ,Fenton,MI,48430,
169,"Frederick, Benjamin",500 Canterbury Dr. ,Neenah,WI,54956,
170,"Chambers, Ronald",51 Redwood Rd. ,Wilson,NC,27893,
171,"Wong, Toby",512 Cedar Swamp Street ,Hartsville,SC,29550,
172,"Wilkins, Elias",512 Randall Mill St. ,Lynchburg,VA,24502,
173,"Chapman, Clay",52 Carson Ave. ,Garland,TX,75043,
174,"Chase, Lorenzo",52 Cemetery St. ,Bloomington,IN,47401,
175,"Everett, Simon",52 Lower River Drive ,Montclair,NJ,07042,
176,"Witt, Lane",52 William Street ,Joliet,IL,60435,
177,"Stuart, Darrin",53 Honey Creek Drive ,Holbrook,NY,11741,
178,"Contreras, Jackie",54 Oakwood Rd. ,Rocklin,CA,95677,
179,"Duffy, Loren",54 Thatcher Court ,Bolingbrook,IL,60440,
180,"Blair, Burl",542 Augusta Rd. ,Crown Point,IN,46307,
181,"Guerra, Charles",548 Glendale Avenue ,Sumter,SC,29150,
182,"Riley, Lonny",550 Mountainview Street ,Shirley,NY,11967,
183,"Nolan, Enrique",56 Henry Smith St. ,Hernando,MS,38632,
184,"Page, Jefferson",57 Edgefield Street ,Burnsville,MN,55337,
185,"Aguilar, Wilfredo",57 Primrose Street ,Savage,MN,55378,
186,"Weaver, Brent",578 Kirkland Lane ,Manahawkin,NJ,08050,
187,"Hull, Cristopher",578 North Center St. ,Dover,NH,03820,
188,"Sanford, Rodolfo",58 Bridge Road ,Schaumburg,IL,60193,
189,"Morton, Rudy",58 E. Depot Drive ,Plymouth,MA,02360,
190,"Mullins, Danilo",58 St Louis Street ,Ronkonkoma,NY,11779,
191,"Weiss, Buford",58 Walnut Street ,Onalaska,WI,54650,
192,"Griffith, Hugh",590 South Tunnel St. ,Warminster,PA,18974,
193,"Jensen, Ian",597 Park St. ,Powhatan,VA,23139,
194,"Ratliff, Kelley",6 Buttonwood St. ,Smithtown,NY,11787,
195,"Schmidt, Raphael",6 Delaware Drive ,South Lyon,MI,48178,
196,"Pruitt, Guy",6 Jackson St. ,Berwyn,IL,60402,
197,"Myers, Eduardo",6 North 53rd St. ,Hilliard,OH,43026,
198,"Tyson, Clay",6 West Liberty St. ,Saugus,MA,01906,
199,"Solis, Kelly",6 West Saxton St. ,Lake Worth,FL,33460,
200,"Mack, Lucio",603 W. Oklahoma Lane ,New Bedford,MA,02740,
201,"Avila, Sol",608 W. Taylor Lane ,San Angelo,TX,76901,
202,"Reynolds, Bill",613 Crescent Street ,Pleasanton,CA,94566,
203,"Valencia, Grady",62 Cambridge Drive ,Westbury,NY,11590,
204,"Hickman, Dewitt",62 Linden St. ,Cherry Hill,NJ,08003,
205,"Holcomb, Jeffry",625 E. Devonshire Avenue ,Mount Laurel,NJ,08054,
206,"Alexander, Eric",626 Edgefield Dr. ,South El Monte,CA,91733,
207,"Rhodes, Hugo",63 Golf Ave. ,Pawtucket,RI,02860,
208,"Terrell, Maria",63 Vermont St. ,Bakersfield,CA,93306,
209,"Flynn, Otto",636 Ryan Lane ,Yuma,AZ,85365,
210,"Trevino, Billie",64 Cedar Swamp Dr. ,Fresh Meadows,NY,11365,
211,"Mcmillan, Arden",64 East Acacia Rd. ,Hazleton,PA,18201,
212,"Adams, Wally",642 Arlington Drive ,Piedmont,SC,29673,
213,"Alvarez, Rashad",647 Courtland Street ,Oak Park,MI,48237,
214,"Frederick, Stephen",647 Woodsman Ave. ,Waxhaw,NC,28173,
215,"Carpenter, Brady",65 Beaver Ridge Road ,Smyrna,GA,30080,
216,"Raymond, Leo",65 Marvon Rd. ,Amarillo,TX,79106,
217,"Gill, Morris",650 Selby Circle ,Fairfax,VA,22030,
218,"Baxter, Lindsey",652 West Myrtle St. ,Wethersfield,CT,06109,
219,"Gallegos, Ruben",66 Bay Meadows St. ,Willingboro,NJ,08046,
220,"Clements, Theo",66 Elmwood Street ,Derby,KS,67037,
221,"Hodge, Cesar",66 Grove Ave. ,Fort Walton Beach,FL,32547,
222,"Montgomery, Adolph",660 N. 2nd Rd. ,Monroe,NY,10950,
223,"Hess, Kraig",662 Tanglewood Lane ,West Orange,NJ,07052,
224,"Weiss, Lou",67 Forest St. ,Wantagh,NY,11793,
225,"Avery, Seymour",67 S. Princess Street ,Memphis,TN,38106,
226,"Gregory, Sydney",674 Sycamore Drive ,Lafayette,IN,47905,
227,"Long, Otis",676 Fordham St. ,Kaukauna,WI,54130,
228,"Johns, Garret",685 Pheasant St. ,Newark,NJ,07103,
229,"Steele, Forrest",687 Addison Circle ,Dawsonville,GA,30534,
230,"Ayala, Toney",688 South Livingston Lane ,North Olmsted,OH,44070,
231,"Lawson, Dana",69 Alderwood Court ,New Haven,CT,06511,
232,"Buckley, Edwardo",690 S. Harvey St. ,Coatesville,PA,19320,
233,"Patrick, Ezequiel",691 Ramblewood Court ,Providence,RI,02904,
234,"Hurst, Lindsey",7 East King Ave. ,Jackson,NJ,08527,
235,"Frazier, Junior",7 Lexington Dr. ,Cuyahoga Falls,OH,44221,
236,"Garrison, Prince",7 Logan Court ,Yuba City,CA,95993,
237,"Levine, Kelvin",7 Plymouth Road ,Greenfield,IN,46140,
238,"Anthony, Alphonso",7 Vale St. ,Edison,NJ,08817,
239,"Kramer, Leif",7 W. Brook Street ,Chandler,AZ,85224,
240,"Nash, Hoyt",70 South Glenwood St. ,Stone Mountain,GA,30083,
241,"Ramirez, Elwood",7009 4th Dr. ,Summerfield,FL,34491,
242,"Pacheco, Federico",7032 Bowman Lane ,Amsterdam,NY,12010,
243,"Harrell, Lacy",704 W. Oak Court ,Seattle,WA,98144,
244,"Malone, Gale",7085 Olive Ave. ,Manchester Township,NJ,08759,
245,"Stewart, Adalberto",7098 Foster Dr. ,Clemmons,NC,27012,
246,"Mccullough, Raphael",71 Bridle Lane ,Mahwah,NJ,07430,
247,"Patel, Troy",71 Old Green Lake Ave. ,Uniondale,NY,11553,
248,"Hubbard, Luciano",71 Tunnel Street ,Hollywood,FL,33020,
249,"Armstrong, Sterling",7108 SE. Ridgewood St. ,Lilburn,GA,30047,
250,"Mccoy, Pierre",7115 Southampton Drive ,Branford,CT,06405,
251,"Nash, Luis",7127 Wall Lane ,Norwalk,CT,06851,
252,"Mejia, Carmelo",7164 Grant Drive ,Rome,NY,13440,
253,"Hampton, Herschel",7178 Jackson Drive ,New Port Richey,FL,34653,
254,"Francis, Garth",72 Catherine Dr. ,Olney,MD,20832,
255,"Mcmahon, Raymond",72 E. Bridgeton St. ,Millville,NJ,08332,
256,"Salazar, Ronnie",72 El Dorado St. ,Chicopee,MA,01020,
257,"Haley, Keenan",72 Tunnel Lane ,Frederick,MD,21701,
258,"Hill, Jody",7201 Mayflower Ave. ,Cincinnati,OH,45211,
259,"Burke, Jody",7212 2nd Ave. ,Lumberton,NC,28358,
260,"Mcdonald, Winfred",7223 Columbia Dr. ,Saint Cloud,MN,56301,
261,"Mcintyre, Adam",7240 Sunbeam Dr. ,Spring Valley,NY,10977,
262,"Olson, Brett",7248 Illinois Rd. ,Fort Lee,NJ,07024,
263,"Roberts, Hung",726 North Glen Eagles St. ,Harrisburg,PA,17109,
264,"Mcdowell, Jose",727 Cedar Court ,Torrington,CT,06790,
265,"Deleon, Micah",7289 Birchpond Drive ,Hackensack,NJ,07601,
266,"Savage, Carrol",7292 Devonshire Drive ,Media,PA,19063,
267,"Kinney, Giuseppe",7318 Oak Drive ,Des Moines,IA,50310,
268,"Hubbard, Elton",732 Sherman Street ,Fullerton,CA,92831,
269,"Reese, Rich",7321 Amerige Street ,Wadsworth,OH,44281,
270,"Farley, Gavin",7323 Wellington Street ,Mount Juliet,TN,37122,
271,"Pierce, Maximo",735 Brewery Ave. ,Pelham,AL,35124,
272,"Reeves, Conrad",7410 Fifth St. ,Wellington,FL,33414,
273,"Campbell, Jacinto",742 East Cherry Hill Street ,Inman,SC,29349,
274,"Hamilton, Clifford",7431 Charles Road ,Deland,FL,32720,
275,"Turner, Randy",7431 State Avenue ,Rockledge,FL,32955,
276,"Witt, Enoch",7432 N. Dogwood Avenue ,Moncks Corner,SC,29461,
277,"Davis, Erin",7447 Sulphur Springs Dr. ,Fayetteville,NC,28303,
278,"Cervantes, Lucio",747 Mountainview Ave. ,Shelton,CT,06484,
279,"Alvarez, Leroy",7495 Brook Drive ,Macon,GA,31204,
280,"Mack, Wesley",75 George St. ,Ithaca,NY,14850,
281,"Franklin, Waylon",75 W. Sherwood Street ,Savannah,GA,31404,
282,"Estrada, Bryon",7505 Colonial St. ,Morganton,NC,28655,
283,"Douglas, Leland",7511 Longfellow Street ,Bluffton,SC,29910,
284,"Wright, Angel",752 Green Lake St. ,Springboro,OH,45066,
285,"Lowery, Quintin",7523 Schoolhouse St. ,Sicklerville,NJ,08081,
286,"Grant, Giovanni",756 Andover Ave. ,Mount Pleasant,SC,29464,
287,"Atkinson, Colby",7575 St Louis Street ,Nutley,NJ,07110,
288,"Cain, Noble",7576 Morris Dr. ,Orland Park,IL,60462,
289,"Bond, Quintin",7578 Smith Store St. ,Mishawaka,IN,46544,
290,"Mcbride, Erwin",758 Central Court ,Roanoke Rapids,NC,27870,
291,"Contreras, Isiah",7582 Harvey Ave. ,Clearwater,FL,33756,
292,"Barr, Virgilio",759 Kent St. ,Billerica,MA,01821,
293,"Crawford, Christoper",76 Griffin Ave. ,Moorhead,MN,56560,
294,"Lane, Robby",7605 Paris Hill Dr. ,Derry,NH,03038,
295,"Hardin, Cortez",7639 Pearl Court ,Lapeer,MI,48446,
296,"Morrison, Wilber",7639 Tallwood Lane ,Shelbyville,TN,37160,
297,"Galloway, Michel",7662 Buckingham Street ,Waterbury,CT,06705,
298,"Rivas, Carmen",767 Valley View Avenue ,San Jose,CA,95127,
299,"Mcdaniel, Jessie",7671 Maiden Court ,Oak Lawn,IL,60453,
300,"Gilliam, Luciano",7673 South Princess Street ,Ann Arbor,MI,48103,
301,"Valdez, Kelvin",7674 Fairway St. ,Deerfield,IL,60015,
302,"Rollins, Santiago",768 Mayfield Street ,Southgate,MI,48195,
303,"Hurley, Rickie",7698 Longfellow Dr. ,Ogden,UT,84404,
304,"England, Wally",77 Bayport Lane ,Williamsburg,VA,23185,
305,"Goodwin, Vernon",77 Tunnel Ave. ,Anaheim,CA,92806,
306,"Howard, Hoyt",770 Thompson Ave. ,Glendora,CA,91740,
307,"Kim, Leland",7701 Cherry Hill St. ,Schererville,IN,46375,
308,"Oconnor, Trenton",772 Willow Dr. ,Navarre,FL,32566,
309,"Odonnell, Luciano",774 Bow Ridge Ave. ,Lorton,VA,22079,
310,"Gomez, Alonzo",7762 Greenview Ave. ,Merrick,NY,11566,
311,"Hughes, Al",7763 Kingston St. ,Englewood,NJ,07631,
312,"Lancaster, Donovan",7770 Woodland St. ,Dundalk,MD,21222,
313,"Barrett, Art",7772 St Margarets Dr. ,Teaneck,NJ,07666,
314,"Herman, Garland",778 S. Beach Ave. ,Port Orange,FL,32127,
315,"Bender, Adam",7786 Newcastle Court ,Baldwinsville,NY,13027,
316,"Daugherty, Freeman",779 Pearl St. ,Macungie,PA,18062,
317,"Schroeder, Sal",7792 Birch Hill Rd. ,La Porte,IN,46350,
318,"Sandoval, Jaime",78 Cherry Lane ,Kent,OH,44240,
319,"Clements, Cedric",7804 South Jones Drive ,New Hyde Park,NY,11040,
320,"Keller, Kory",7823 Cooper Dr. ,West Bloomfield,MI,48322,
321,"Goff, Tory",7833 Victoria Street ,Cottage Grove,MN,55016,
322,"Mcclure, Rodrick",784 Cardinal Dr. ,Elizabeth,NJ,07202,
323,"Perez, Craig",786 Peninsula Drive ,Birmingham,AL,35209,
324,"Sherman, Reynaldo",787 3rd Ave. ,Alabaster,AL,35007,
325,"Rollins, Pat",7870 Studebaker St. ,Mooresville,NC,28115,
326,"Swanson, Troy",7876 Vernon St. ,Fairburn,GA,30213,
327,"Woodard, Jonas",788 Young St. ,Hanover Park,IL,60133,
328,"Gutierrez, Errol",789 Schoolhouse St. ,Stamford,CT,06902,
329,"Mcdowell, Silas",79 Lincoln Ave. ,Carrollton,GA,30117,
330,"Eaton, Herb",79 W. Lake Lane ,Pueblo,CO,81001,
331,"Mcmillan, Andreas",7911 Cedar Swamp Dr. ,Cleveland,TN,37312,
332,"Bond, Benton",792 Bowman Ave. ,Davenport,IA,52804,
333,"Barber, Hai",794 Penn Rd. ,Dorchester Center,MA,02124,
334,"Ball, Leroy",7969 High Avenue ,Greensboro,NC,27405,
335,"Bridges, Danilo",8 Corona St. ,Hickory,NC,28601,
336,"Guerrero, Alexander",8 Oak Valley Lane ,Randallstown,MD,21133,
337,"Keith, Louis",80 Bridle Drive ,Voorhees,NJ,08043,
338,"Marquez, Francis",80 Harvard Ave. ,Cedar Falls,IA,50613,
339,"Mendez, Toney",80 Yukon Rd. ,Riverdale,GA,30274,
340,"Mcmahon, Cruz",8002 Warren Ave. ,Roselle,IL,60172,
341,"Steele, Eusebio",8008 E. Edgewood St. ,Odenton,MD,21113,
342,"Puckett, Adolfo",803 Howard Drive ,Hartford,CT,06106,
343,"Sanchez, Dante",808 Indian Spring Street ,Metairie,LA,70001,
344,"Solomon, Ezekiel",8086 Third Ave. ,West Palm Beach,FL,33404,
345,"Robles, Merrill",8099 West Oxford Ave. ,Saint Paul,MN,55104,
346,"Greene, Earnest",81 Beach Lane ,Cape Coral,FL,33904,
347,"Bryant, Jonathon",81 James Ave. ,North Augusta,SC,29841,
348,"Hanson, Jewell",81 Wild Horse Street ,Youngstown,OH,44512,
349,"Chambers, Lyle",8102 South Brickell Road ,Livingston,NJ,07039,
350,"Pierce, Damian",8110 South Kingston St. ,Norcross,GA,30092,
351,"Roberson, Gus",8113 Leeton Ridge Street ,Geneva,IL,60134,
352,"Levine, Jefferey",8146 Creek Drive ,Spring Hill,FL,34608,
353,"Hughes, Elton",817 Wild Rose Lane ,Jacksonville Beach,FL,32250,
354,"Michael, Keith",82 E. Princeton Court ,Hope Mills,NC,28348,
355,"Terry, Kevin",82 Jennings Court ,Flushing,NY,11354,
356,"Livingston, Doug",8202 Shadow Brook Lane ,Oviedo,FL,32765,
357,"Perry, Thanh",822 Mayfair Street ,Brentwood,NY,11717,
358,"Collier, Shayne",8223 Marconi St. ,Poughkeepsie,NY,12601,
359,"Vaughn, Ivory",8231 Marvon St. ,North Bergen,NJ,07047,
360,"Hardin, Jamison",8266 1st Road ,Hackettstown,NJ,07840,
361,"Anderson, Israel",8272 Peachtree Ave. ,Carol Stream,IL,60188,
362,"Salinas, Shon",8288 E. Somerset Rd. ,Hudson,NH,03051,
363,"Molina, Zack",8289 Primrose Rd. ,Suwanee,GA,30024,
364,"Mathis, Darwin",8293 Sierra St. ,Orange Park,FL,32065,
365,"Mccarty, Dante",83 Henry Smith Street ,Meadville,PA,16335,
366,"Fleming, Lindsay",83 James St. ,Cedar Rapids,IA,52402,
367,"Morales, Deshawn",83 North Lincoln Ave. ,Michigan City,IN,46360,
368,"Johnson, Abdul",83 Pennsylvania Street ,Tupelo,MS,38801,
369,"Bruce, Emery",83 Pineknoll Drive ,Mchenry,IL,60050,
370,"Sloan, Theodore",830 Depot St. ,Lancaster,NY,14086,
371,"Hartman, Stacey",8306 Vermont Ave. ,New Castle,PA,16101,
372,"Campos, Hal",8315 Dunbar Street ,Menasha,WI,54952,
373,"Lara, Jared",8320 S. Bald Hill Ave. ,Lebanon,PA,17042,
374,"Marshall, Micheal",8364 Bishop St. ,Latrobe,PA,15650,
375,"Valentine, Billie",8366 Canterbury Ave. ,Menomonee Falls,WI,53051,
376,"Langley, Darrin",837 Laurel St. ,Chattanooga,TN,37421,
377,"Gibbs, Lyle",8376 Miller Drive ,New York,NY,10002,
378,"Travis, Vincenzo",8388 1st St. ,Malvern,PA,19355,
379,"Byers, Floyd",8388 W. Golf St. ,Cary,NC,27511,
380,"Boone, Ervin",84 NE. 4th Rd. ,Brownsburg,IN,46112,
381,"White, Russel",840 Hill Lane ,Port Saint Lucie,FL,34952,
382,"Hart, Brock",842 Warren Lane ,Tacoma,WA,98444,
383,"Rasmussen, Kasey",8431 High Noon Court ,Kalamazoo,MI,49009,
384,"Jacobson, Jefferson",847 Beaver Ridge St. ,Saratoga Springs,NY,12866,
385,"Russo, Sanford",8476 River Dr. ,Port Washington,NY,11050,
386,"Stafford, Ervin",85 S. Overlook Dr. ,Lake Jackson,TX,77566,
387,"Mays, Geoffrey",851 Edgewater Ave. ,Hopkins,MN,55343,
388,"Wade, Willard",8516 Rockland Drive ,Minneapolis,MN,55406,
389,"Warren, Sid",8531 2nd Rd. ,Oshkosh,WI,54901,
390,"Patel, Geraldo",8538 East Carpenter St. ,Ellenwood,GA,30294,
391,"Guerrero, Jarvis",857 Wilson Court ,Clifton Park,NY,12065,
392,"Mcconnell, Curt",86 North Fieldstone St. ,Haines City,FL,33844,
393,"Henson, Josiah",8608 Iroquois Avenue ,Falls Church,VA,22041,
394,"Joyce, Kendrick",8612 Ketch Harbour Ave. ,Dallas,GA,30132,
395,"Buck, Mohamed",8643 Mammoth Ave. ,Mahopac,NY,10541,
396,"Cortez, Marcellus",8652 Magnolia Road ,Wausau,WI,54401,
397,"Horne, Wilburn",87 Blue Spring Street ,Ponte Vedra Beach,FL,32082,
398,"Oneal, Lanny",87 Ryan Dr. ,North Wales,PA,19454,
399,"Sexton, Everette",870 Middle River St. ,East Northport,NY,11731,
400,"Mendez, Lane",8706 S. Ridgeview Court ,Chelsea,MA,02150,
401,"Mason, Rosario",871 Rocky River Street ,Bedford,OH,44146,
402,"Myers, Jorge",8714 Carpenter St. ,Christiansburg,VA,24073,
403,"Gill, Terrell",872 Roosevelt Road ,Sandusky,OH,44870,
404,"Gutierrez, Rusty",873 Wagon St. ,Plainview,NY,11803,
405,"Powell, Jamel",8732 Hawthorne Drive ,Uniontown,PA,15401,
406,"Harris, Anton",8738 Poor House St. ,New Windsor,NY,12553,
407,"Henson, Micah",875 Amerige Street ,Elizabethton,TN,37643,
408,"Sosa, Jeremiah",876 Yukon St. ,Ottawa,IL,61350,
409,"Fitzgerald, Sterling",877 Swanson Lane ,Easton,PA,18042,
410,"Vaughan, Barney",8774 West Tower Drive ,Havertown,PA,19083,
411,"Strong, Deon",8775 Greystone St. ,Raleigh,NC,27603,
412,"Henderson, Len",878 W. High Point Ave. ,Garfield,NJ,07026,
413,"Sanchez, Junior",881 Main St. ,Baldwin,NY,11510,
414,"Shaffer, Paris",882 Park Avenue ,Syosset,NY,11791,
415,"Church, Jamaal",8844 E. Harvard Road ,Chesterton,IN,46304,
416,"Vargas, Lowell",8851 S. 6th Drive ,Miami,FL,33125,
417,"Alvarez, Jonathon",8869 East Arch Drive ,Leesburg,VA,20175,
418,"Anderson, Val",8895 Acacia St. ,Defiance,OH,43512,
419,"Fernandez, Hung",89 North Birchpond Ave. ,Gurnee,IL,60031,
420,"Delacruz, Isreal",89 Wrangler Ave. ,Catonsville,MD,21228,
421,"Dale, Barry",890 Bridle Avenue ,Chambersburg,PA,17201,
422,"Haynes, Tim",893 Bohemia Dr. ,Hamburg,NY,14075,
423,"Lott, Russel",8932 Arrowhead Dr. ,Jonesborough,TN,37659,
424,"Cobb, Raymon",8932 East Bay Ave. ,North Royalton,OH,44133,
425,"Brown, Delmar",8932 Roosevelt St. ,Urbandale,IA,50322,
426,"Foster, Timmy",8938 Rockville St. ,Saint Johns,FL,32259,
427,"Cabrera, Damon",8940 Canterbury Street ,Silver Spring,MD,20901,
428,"Castillo, Darron",8941 North George Drive ,Northbrook,IL,60062,
429,"Mcknight, Elton",895 Rockwell Street ,Duarte,CA,91010,
430,"Montoya, Gino",8975 Mill St. ,Battle Ground,WA,98604,
431,"Gallagher, Charlie",8976 Amherst Lane ,Nottingham,MD,21236,
432,"Flores, Willis",8977 Buttonwood Street ,Chippewa Falls,WI,54729,
433,"Herman, Leon",8979 Marconi Dr. ,Mount Airy,MD,21771,
434,"Reeves, Amos",9 Littleton St. ,Mechanicsville,VA,23111,
435,"Jensen, Louis",9 Wrangler Rd. ,Bowling Green,KY,42101,
436,"Lowe, Bret",90 Alton Road ,Utica,NY,13501,
437,"Murphy, Francesco",90 New Saddle Drive ,Bergenfield,NJ,07621,
438,"Chapman, Armando",9000 E. Elizabeth St. ,Richmond,VA,23223,
439,"Bridges, Miguel",9010 North Tarkiln Hill Ave. ,Hightstown,NJ,08520,
440,"Velazquez, Sung",9027 E. Santa Clara Ave. ,Hagerstown,MD,21740,
441,"Sparks, Martin",9032 Parker Avenue ,Ossining,NY,10562,
442,"Walton, Gabriel",9086 Lake View Rd. ,North Kingstown,RI,02852,
443,"Silva, Lon",909 Charles Ave. ,Melbourne,FL,32904,
444,"Kirkland, Ferdinand",91 Hall St. ,Greenwood,SC,29646,
445,"Cook, Maynard",91 Liberty St. ,Fresno,CA,93706,
446,"Buckley, Hugo",9124 Monroe Street ,Winona,MN,55987,
447,"Sellers, Antoine",9137 2nd St. ,Granger,IN,46530,
448,"Carrillo, Rocky",9163 Annadale St. ,South Windsor,CT,06074,
449,"Higgins, Joshua",918 Grand Dr. ,Canyon Country,CA,91387,
450,"Sheppard, Vince",9191 Peachtree Ave. ,Springfield,PA,19064,
451,"Mendez, Ambrose",9193 Clark St. ,Grosse Pointe,MI,48236,
452,"Morales, Ismael",92 Paris Hill Circle ,Waukesha,WI,53186,
453,"William, Kendrick",92 Pulaski St. ,Centereach,NY,11720,
454,"Lamb, Arlen",92 Second Street ,Oxnard,CA,93035,
455,"Alvarado, Christopher",9206 Manhattan Street ,Anchorage,AK,99504,
456,"Mccormick, Wilfred",925 Livingston Ave. ,Dearborn Heights,MI,48127,
457,"Chan, Douglas",925 Pearl St. ,Jonesboro,GA,30236,
458,"Rodriguez, Monte",9251 W. Pineknoll St. ,Des Plaines,IL,60016,
459,"Hardin, Earnest",9264 S. Cemetery Dr. ,Staten Island,NY,10301,
460,"Oconnor, Hilario",929 East San Carlos St. ,Newburgh,NY,12550,
461,"Walker, Tomas",9294 North Miller Rd. ,Palos Verdes Peninsula,CA,90274,
462,"Harrington, Kurt",9294 Walnutwood St. ,Wheeling,WV,26003,
463,"Garner, Levi",93 Chapel Lane ,Lansdowne,PA,19050,
464,"Lawrence, Jose",93 Myers Rd. ,Englishtown,NJ,07726,
465,"Michael, Waylon",93 NE. Pine Rd. ,Mobile,AL,36605,
466,"Gordon, Kurt",93 St Louis Lane ,Clover,SC,29710,
467,"Owens, Garrett",930 Wagon Lane ,Brainerd,MN,56401,
468,"Ward, Morris",9312 William St. ,La Vergne,TN,37086,
469,"Allen, Jimmy",932 Jackson Rd. ,Amityville,NY,11701,
470,"Ramsey, Kasey",9326 S. Gregory St. ,Chatsworth,GA,30705,
471,"Blevins, Brent",9344 Armstrong Court ,Jenison,MI,49428,
472,"Hale, Von",9362 North Surrey Dr. ,East Meadow,NY,11554,
473,"Simpson, Alton",939 Miller Street ,Wilkes Barre,PA,18702,
474,"England, Roscoe",9391 Golden Star Avenue ,Belleville,NJ,07109,
475,"Stevenson, Kendall",94 North Berkshire Drive ,Cordova,TN,38016,
476,"Hart, Benton",94 North Court Avenue ,Freehold,NJ,07728,
477,"Schmidt, Dewey",942 N. High Noon Street ,Bangor,ME,04401,
478,"Thompson, Andre",9426 West Bald Hill Dr. ,Marshalltown,IA,50158,
479,"Estes, Brendan",9435 Oklahoma St. ,Jackson Heights,NY,11372,
480,"Carey, Gustavo",9440 Brandywine Rd. ,Tewksbury,MA,01876,
481,"Poole, Eduardo",9456 Sulphur Springs Dr. ,North Miami Beach,FL,33160,
482,"Joseph, Gordon",946 Tunnel Street ,Nashua,NH,03060,
483,"Dunn, Hershel",9463 N. Trenton Street ,Miami Beach,FL,33139,
484,"Richard, Stacey",9466 Westport Drive ,Stafford,VA,22554,
485,"Jackson, Jude",9469 Bedford Ave. ,Allen Park,MI,48101,
486,"Maynard, Daryl",947 Anderson Road ,Murrells Inlet,SC,29576,
487,"Wooten, Eloy",9471 Wentworth St. ,Los Banos,CA,93635,
488,"Robinson, Thurman",9494 Pheasant St. ,Ellicott City,MD,21042,
489,"Merrill, Jesus",95 Edgemont Ave. ,Sulphur,LA,70663,
490,"Donaldson, Josh",95 Honey Creek St. ,Grove City,OH,43123,
491,"Garrison, Eric",9533 Manor Station Ave. ,Gaithersburg,MD,20877,
492,"Le, Ernesto",9536 La Sierra Dr. ,Hephzibah,GA,30815,
493,"England, Jean",9548 N. Peachtree Street ,Downers Grove,IL,60515,
494,"Carrillo, Irwin",956 West Briarwood St. ,Phillipsburg,NJ,08865,
495,"Savage, Fabian",9564 Redwood Ave. ,Howell,NJ,07731,
496,"Mays, Dewey",9565 SW. New Saddle Ave. ,Opa Locka,FL,33054,
497,"Flores, Brad",9582 Creek Lane ,Scotch Plains,NJ,07076,
498,"Church, Owen",9588 N. Pleasant Dr. ,Lynn,MA,01902,
499,"Kirby, Rudolf",9595 Rocky River Dr. ,Johnston,RI,02919,
500,"Davenport, Herb",96 Bridle St. ,Westford,MA,01886,
501,"Weber, Edmundo",96 Green Hill St. ,New Philadelphia,OH,44663,
502,"Lewis, Michal",9615 West 8th St. ,Harrison Township,MI,48045,
503,"Mccray, Timothy",9620 Southampton Circle ,Ft Mitchell,KY,41017,
504,"Neal, Riley",9627 Dunbar Avenue ,Orange,NJ,07050,
505,"George, Genaro",9699 S. Grandrose Street ,King Of Prussia,PA,19406,
506,"Bennett, Darell",97 Division St. ,Saint Augustine,FL,32084,
507,"Henry, Augustine",97 Glen Eagles Drive ,Manassas,VA,20109,
508,"Harding, Milan",9716 Locust Drive ,Fort Washington,MD,20744,
509,"Payne, Roland",9738 Proctor St. ,Hopkinsville,KY,42240,
510,"Carver, Horace",9748 Willow Street ,Altoona,PA,16601,
511,"Cole, Guillermo",9758 Windsor St. ,Arlington,MA,02474,
512,"Craft, Caleb",9766 North Green Ave. ,Oakland Gardens,NY,11364,
513,,9782 Lawrence Dr. ,Clarksburg,WV,26301,
514,"Figueroa, Courtney",9787 Lincoln St. ,Adrian,MI,49221,
515,"Mullins, Mohammed",9791 Canterbury St. ,Ridgewood,NJ,07450,
516,"Cochran, Noble",98 Kingston St. ,Kissimmee,FL,34741,
517,"Ball, Wilfredo",9807 Harrison Ave. ,Owosso,MI,48867,
518,"Beasley, Emerson",984 Big Rock Cove St. ,Hummelstown,PA,17036,
519,"Frederick, Aubrey",9850 Pennington St. ,Carmel,NY,10512,
520,"Pratt, Everette",9858 W. Sherman Ave. ,Zeeland,MI,49464,
521,"Delgado, Tyrell",9871 S. Harrison Street ,Reisterstown,MD,21136,
522,"Roth, Colby",9877 Westport St. ,West Babylon,NY,11704,
523,"Mendoza, Rufus",9891 Ann St. ,Grand Blanc,MI,48439,
524,"Matthews, Shane",9963 East Street ,Winter Garden,FL,34787,
525,"Carter, Efren",9966 Cleveland St. ,Zion,IL,60099,
526,"Atkinson, Humberto",9977 Hilldale Dr. ,Marquette,MI,49855,
527,"Osborn, Terrell",999 Brickell Avenue ,Hicksville,NY,11801,
528,"Sweeney, Gaston",9991 Howard Street ,Park Ridge,IL,60068,
529,"Weber, Denis",847 Amherst Rd. ,Aberdeen,SD,57401,
530,"Hill, Pete",79 Princeton St. ,Acworth,GA,30101,
531,"Diaz, Huey",39 Atlantic Lane ,Ada,OK,74820,
532,"Sampson, Darius",39 Greenview Rd. ,Addison,IL,60101,
533,"Sherman, Luciano",5 1st Ave. ,Akron,OH,44312,
534,"Bryant, Herb",77 Cedarwood Ave. ,Albany,NY,12203,
535,"Randall, Lemuel",469 Lexington Street ,Allison Park,PA,15101,
536,"Leonard, Rickey",977 Pilgrim St. ,Alpharetta,GA,30004,
537,"Mcgee, Billy",7862 San Juan Avenue ,Anderson,SC,29621,
538,"Christian, Damion",726 Valley Drive ,Annandale,VA,22003,
539,"Lucas, Kris",58 Brewery Dr. ,Antioch,TN,37013,
540,"Donovan, Edgardo",606 Lexington St. ,Apple Valley,CA,92307,
541,"Stanley, Nickolas",678 Purple Finch St. ,Appleton,WI,54911,
542,"Cohen, Evan",8680 Courtland Ave. ,Arlington Heights,IL,60004,
543,"Mcmahon, Earl",227 Valley Street ,Ashburn,VA,20147,
544,"Maxwell, Josh",565 E. Cardinal Ave. ,Asheboro,NC,27205,
545,"Dickson, Jerrell",957 Galvin Lane ,Asheville,NC,28803,
546,"Jackson, Beau",9205 Vermont Ave. ,Ashtabula,OH,44004,
547,"Puckett, Cleo",957 Durham Ave. ,Astoria,NY,11102,
548,"Morin, Korey",97 East Santa Clara Drive ,Athens,GA,30605,
549,"Doyle, Cameron",8860 Sulphur Springs Lane ,Atlanta,GA,30303,
550,"Mcdonald, Donte",266 W. Fairway Street ,Attleboro,MA,02703,
551,"Mcclain, Anthony",9597 Winding Way Street ,Augusta,GA,30906,
552,"Petty, Andrew",361 Randall Mill St. ,Ballston Spa,NY,12020,
553,"Lewis, Ivory",282 NW. Manor Street ,Baltimore,MD,21206,
554,"Sykes, Winfred",218 Pine Court ,Banning,CA,92220,
555,"Estrada, Berry",531 Johnson St. ,Bardstown,KY,40004,
556,"Hancock, Jarrod",757 Arch St. ,Barrington,IL,60010,
557,"Nichols, Otha",8546 South Piper Dr. ,Batavia,OH,45103,
558,"Guerra, Marcel",59 Lake Drive ,Bay City,MI,48706,
559,"Donaldson, Adalberto",7907 Glenholme Avenue ,Bayonne,NJ,07002,
560,"Estes, Jacob",438 Princeton St. ,Beachwood,OH,44122,
561,"Cole, Renato",984 Brandywine Drive ,Beckley,WV,25801,
562,"Norton, Carmelo",552 Gates Lane ,Bellmore,NY,11710,
563,"Warren, Derrick",98 Swanson Drive ,Belmont,MA,02478,
564,"Graham, Elwood",264 El Dorado Street ,Beloit,WI,53511,
565,"Trujillo, Lyman",8499 Rosewood Lane ,Beltsville,MD,20705,
566,"Lewis, Gregorio",7507 N. Colonial Rd. ,Bensalem,PA,19020,
567,"Frye, Ted",442 North Market Road ,Bethel Park,PA,15102,
568,"Gallagher, Zachery",155 West Marvon St. ,Bethpage,NY,11714,
569,"Webster, Dwayne",7971 Gregory St. ,Bettendorf,IA,52722,
570,"Casey, Leland",5 Washington Rd. ,Biloxi,MS,39532,
571,"Figueroa, Minh",746 Wild Horse Drive ,Bismarck,ND,58501,
572,"Pickett, Thad",185 Mechanic St. ,Blacksburg,VA,24060,
573,"May, Ike",9076 Third Street ,Blackwood,NJ,08012,
574,"Bennett, Trey",8309 E. Brickyard Court ,Boca Raton,FL,33428,
575,"Lane, Mathew",9992 Prospect Street ,Bonita Springs,FL,34135,
576,"Lott, Mitchel",285 Mulberry Lane ,Bountiful,UT,84010,
577,"Thomas, Winston",63 Old High Point Ave. ,Bowie,MD,20715,
578,"Haynes, Jerry",791 Central Rd. ,Boynton Beach,FL,33435,
579,"Abbott, Raymon",8581 Westminster Drive ,Bozeman,MT,59715,
580,"Solis, Anderson",512 Shady Street ,Braintree,MA,02184,
581,"Gray, Mario",9808 Miller Ave. ,Brandon,FL,33510,
582,"Spears, Derick",8689 E. William Drive ,Bridgeport,CT,06606,
583,"Riddle, Cristopher",164 Winchester St. ,Bridgewater,NJ,08807,
584,"Cantu, Levi",783 Briarwood St. ,Brighton,MA,02135,
585,"Marks, Ferdinand",80 Military Dr. ,Bristow,VA,20136,
586,"Pollard, Alonzo",354 Jackson Ave. ,Brookfield,WI,53045,
587,"Olson, Markus",34 E. Glen Creek Street ,Brunswick,GA,31525,
588,"Pierce, Gale",709 Cypress Ave. ,Buffalo Grove,IL,60089,
589,"Atkinson, Brain",7185 South Rockville St. ,Buffalo,NY,14215,
590,"Myers, Homer",95 Spring St. ,Burlington,MA,01803,
591,"Livingston, Wilburn",685 Lake Forest Avenue ,Butte,MT,59701,
592,"Kelley, Marshall",20 Brickyard Ave. ,Caldwell,NJ,07006,
593,"Henry, Alberto",27 W. New Saddle Court ,Calumet City,IL,60409,
594,"Bryan, Alec",777 Blue Spring Street ,Camden,NJ,08105,
595,"Nunez, Anderson",103 West Devon St. ,Camp Hill,PA,17011,
596,"Castillo, Bryon",464 Homewood Rd. ,Campbell,CA,95008,
597,"Durham, Darron",9632 Howard St. ,Canandaigua,NY,14424,
598,"Hancock, Hong",52 Tarkiln Hill Lane ,Canonsburg,PA,15317,
599,"Burgess, Boris",767 Buckingham Avenue ,Capitol Heights,MD,20743,
600,"Brock, Toby",752 Bay Rd. ,Carpentersville,IL,60110,
601,"Castaneda, Jarred",133 Canterbury Ave. ,Cartersville,GA,30120,
602,"Merrill, Marty",24 East Oak Ave. ,Champaign,IL,61821,
603,"Franco, Arlen",8048 Lake Road ,Champlin,MN,55316,
604,"IBM Corporation, The",7409 Cypress St. ,Chapel Hill,NC,27516,
605,"Rogers, Boyce",722 South Brook Ave. ,Chardon,OH,44024,
606,"Curry, Jacques",738 Windfall Street ,Chaska,MN,55318,
607,"Richardson, Billy",15 Thomas St. ,Chelmsford,MA,01824,
608,"Gaines, Gonzalo",798 Country Club Dr. ,Chicago Heights,IL,60411,
609,"Osborn, Minh",69 Plumb Branch Street ,Clarksville,TN,37040,
610,"Raymond, Herbert",54 South Homestead Drive ,Clinton Township,MI,48035,
611,"Levy, Gary",944 Mill Dr. ,Coachella,CA,92236,
612,"Cole, Antone",633 Vermont St. ,Cocoa,FL,32927,
613,"Russo, Malcolm",19 Stonybrook Dr. ,Collegeville,PA,19426,
614,"Neal, Anibal",727 N. Ridgeview Ave. ,Collierville,TN,38017,
615,"Carey, Malcolm",8658 Pumpkin Hill Dr. ,Columbus,GA,31904,
616,"Meyer, Vance",328 Hill Field Street ,Conway,SC,29526,
617,"Whitehead, Rich",8408 Kingston Lane ,Conyers,GA,30012,
618,"Cantrell, Rudolf",9674 Hickory St. ,Cookeville,TN,38501,
619,"Byers, Simon",871 Cemetery Drive ,Copperas Cove,TX,76522,
620,"Rose, Irvin",774 York Road ,Coram,NY,11727,
621,"Rose, Shirley",81 Howard Street ,Corona,NY,11368,
622,"Gillespie, Merrill",45 West Andover Street ,Corpus Christi,TX,78418,
623,"Mccarty, Reynaldo",81 Park Court ,Council Bluffs,IA,51501,
624,"Mckee, Jarrett",69 El Dorado St. ,Coventry,RI,02816,
625,"Lopez, Philip",7702 Sycamore Lane ,Cranford,NJ,07016,
626,"Schultz, Aldo",9073 Buckingham Drive ,Cranston,RI,02920,
627,"English, Gerardo",76 Wellington Street ,Crawfordsville,IN,47933,
628,"Bush, George",9475 Constitution St. ,Cumberland,RI,02864,
629,"Duke, Taylor",74 Wentworth Street ,Danbury,CT,06810,
630,"Garner, Ignacio",552 Blue Spring Ave. ,Decatur,GA,30030,
631,"Cochran, Larry",9979 Inverness Ave. ,Delray Beach,FL,33445,
632,"Summers, Wilber",667 Garden St. ,Deltona,FL,32725,
633,"Barker, Donte",9854 Heather Street ,Desoto,TX,75115,
634,"Boyle, Trevor",382 Hilldale St. ,Detroit,MI,48205,
635,"Mays, Dylan",6 Lantern Lane ,Dickson,TN,37055,
636,"Rodgers, Keith",9790 Shady Court ,Dothan,AL,36301,
637,"Lang, Taylor",486 Park Street ,Douglasville,GA,30134,
638,"Waller, Lionel",302 North William Rd. ,Downingtown,PA,19335,
639,"Brewer, Maurice",9790 N. Smith Street ,Doylestown,PA,18901,
640,"Curtis, Demetrius",8001 Cobblestone Street ,Dracut,MA,01826,
641,"Pope, Felix",7963 Wayne Dr. ,Drexel Hill,PA,19026,
642,"Hodges, Ervin",310 Bellevue Road ,East Hartford,CT,06118,
643,"Rhodes, Marcus",558 Mill Court ,East Lansing,MI,48823,
644,"Carroll, Julio",452 S. Woodside Ave. ,East Orange,NJ,07017,
645,"Spence, Gerald",320 Prince St. ,East Stroudsburg,PA,18301,
646,"Hicks, Roland",34 Bohemia St. ,Eastlake,OH,44095,
647,"Talley, Marlon",36 Cedar Dr. ,Eastpointe,MI,48021,
648,"Klein, Bradly",7556 Golden Star Ave. ,Eau Claire,WI,54701,
649,"Yang, Claude",803 Glen Ridge St. ,Eden Prairie,MN,55347,
650,"Coffey, Darell",20 Beech Lane ,Egg Harbor Township,NJ,08234,
651,"William, Shirley",944 N. Paris Hill St. ,El Paso,TX,79930,
652,"Good, Michael",61 Gulf Drive ,Elgin,IL,60120,
653,"Boone, Blaine",9083 Silver Spear St. ,Elizabethtown,PA,17022,
654,"Summers, Lonny",986 Lookout Drive ,Elk Grove Village,IL,60007,
655,"Finley, Rigoberto",7224 Cobblestone St. ,Elk River,MN,55330,
656,"Mccarty, Adrian",9873 Cedarwood St. ,Elkhart,IN,46514,
657,"Montgomery, Jimmy",500 Richardson St. ,Elkridge,MD,21075,
658,"Bean, Pierre",87 Saxon Dr. ,Elkton,MD,21921,
659,"Chang, Maria",8517 Smith St. ,Enfield,CT,06082,
660,"Mcneil, Carl",8464 S. Sunbeam Ave. ,Enterprise,AL,36330,
661,"Caldwell, Dee",901 NE. Miller Ave. ,Ephrata,PA,17522,
662,"Sandoval, Cristopher",820 King St. ,Erie,PA,16506,
663,"Watson, Heriberto",667 Sugar Drive ,Erlanger,KY,41018,
664,"Farmer, Reggie",624 Meadowbrook Drive ,Essex,MD,21221,
665,"Holt, Stefan",7 N. Sierra Road ,Euless,TX,76039,
666,"Townsend, Junior",19 Creekside Road ,Evans,GA,30809,
667,"Casey, Derek",5 Cedarwood Street ,Evanston,IL,60201,
668,"Wolfe, Antonio",79 Third Ave. ,Evansville,IN,47711,
669,"Deleon, Gene",9540 Brown Road ,Everett,MA,02149,
670,"Henson, Dion",369 Newport Ave. ,Fair Lawn,NJ,07410,
671,"Sparks, Sammie",3 Wintergreen St. ,Fairborn,OH,45324,
672,"Norman, Ron",266 Bay Road ,Fairfield,CT,06824,
673,"Page, Brain",7005 Armstrong Dr. ,Fairhope,AL,36532,
674,"Richard, Terrance",2 NW. Military Street ,Fairmont,WV,26554,
675,"Dunlap, Rolland",280 Homewood Court ,Fall River,MA,02720,
676,"Jefferson, Armand",318 Gregory St. ,Far Rockaway,NY,11691,
677,"Dalton, Luigi",16 Stillwater Street ,Faribault,MN,55021,
678,"Odonnell, Hubert",7571 1st Avenue ,Farmingdale,NY,11735,
679,"Knowles, Timmy",559 Marshall Ave. ,Farmington,MI,48331,
680,"Harrison, Issac",8613 Belmont Ave. ,Findlay,OH,45840,
681,"Cole, Rocco",707 Elm Ave. ,Fishers,IN,46037,
682,"Johnston, Royce",513 Glenwood Ave. ,Fitchburg,MA,01420,
683,"Yates, Hector",7226 E. Railroad Ave. ,Florence,SC,29501,
684,"Mercado, Ron",691 Livingston St. ,Forney,TX,75126,
685,"Francis, Norman",5 Lees Creek Rd. ,Fort Dodge,IA,50501,
686,"Wolf, Eddie",7744 Hudson Drive ,Fort Lauderdale,FL,33308,
687,"Adkins, Jordon",9 Griffin Court ,Fort Myers,FL,33905,
688,"Guerrero, Samuel",2 Addison Drive ,Fort Wayne,IN,46804,
689,"West, Cristobal",141 Tunnel Street ,Fort Worth,TX,76110,
690,"Exxon Corporation, The",325 Anderson Drive ,Framingham,MA,01701,
691,"Hogan, Jeromy",7670 Fairway Rd. ,Franklin,MA,02038,
692,"Allen, Collin",354 Shipley Ave. ,Fredericksburg,VA,22405,
693,"Schwartz, Wally",9310 North Ramblewood Ave. ,Freeport,NY,11520,
694,"Sparks, Santo",42 West East Lane ,Fremont,OH,43420,
695,"Jones, Greg",7904 Glen Creek St. ,Fuquay Varina,NC,27526,
696,"Dawson, Boris",80 North Spruce St. ,Gainesville,VA,20155,
697,"Rich, Chance",7324 Glenlake Road ,Gallatin,TN,37066,
698,"Miles, Deandre",7039 Tailwater St. ,Garner,NC,27529,
699,"Briggs, Dylan",214 S. Hillcrest Lane ,Germantown,MD,20874,
700,"Farrell, Everette",22 Fawn St. ,Gettysburg,PA,17325,
701,"Montoya, Cody",966 4th St. ,Gibsonia,PA,15044,
702,"Stokes, Eusebio",9299 North Sunbeam Ave. ,Glasgow,KY,42141,
703,"Lawrence, Joesph",140 Summer Street ,Glastonbury,CT,06033,
704,"Osborn, Marlon",9467 Glenwood Ave. ,Glen Burnie,MD,21060,
705,"Mckee, Mohammad",540A Ohio Drive ,Glen Ellyn,IL,60137,
706,"Kirby, Modesto",9545 Atlantic Street ,Glendale Heights,IL,60139,
707,"Short, Barrett",882 San Juan Rd. ,Glenview,IL,60025,
708,"Hicks, Silas",607 West Devonshire Drive ,Goose Creek,SC,29445,
709,"Stone, Joan",9509 Oak Meadow St. ,Grand Island,NE,68801,
710,"Mclean, Carroll",31 Holly St. ,Grand Rapids,MI,49503,
711,"Wise, Dwain",453 Southampton St. ,Grandville,MI,49418,
712,"Hansen, Wilson",552 Chapel Ave. ,Green Bay,WI,54302,
713,"Byers, Elwood",476 Swanson Road ,Greensburg,PA,15601,
714,"Walters, Nestor",91 Smith Store St. ,Greer,SC,29650,
715,"Norton, Reggie",38 Inverness St. ,Groton,CT,06340,
716,"Rivers, Rodrigo",403 Lakewood St. ,Grovetown,GA,30813,
717,"Hinton, Jamal",38 Henry St. ,Gulfport,MS,39503,
718,"Mercado, Leigh",9247 Orange Street ,Halethorpe,MD,21227,
719,"Holden, Fabian",885 Brewery Court ,Hamilton,OH,45011,
720,"Colon, Alex",79 Border Court ,Hammonton,NJ,08037,
721,"Roman, Emmanuel",702 Hillside St. ,Hamtramck,MI,48212,
722,"Drake, Dwain",7666 Lower River Lane ,Harlingen,TX,78552,
723,"Little, King",9 East Rd. ,Helotes,TX,78023,
724,"Wells, Brant",8 Cobblestone Dr. ,Hempstead,NY,11550,
725,"Bates, Mark",38 North Lakeshore Dr. ,Hermitage,TN,37076,
726,"Giles, Desmond",21 Delaware Street ,Hialeah,FL,33010,
727,"Cannon, Trenton",261 North Cypress Dr. ,High Point,NC,27265,
728,"Wood, Paris",8892 Valley View Lane ,Highland,IN,46322,
729,"Hull, Jerrod",6 Gainsway Dr. ,Hillsboro,OR,97124,
730,"Daniel, Glenn",306 Cardinal Lane ,Hillsborough,NJ,08844,
731,"Cobb, Jim",953 Elizabeth Dr. ,Hinesville,GA,31313,
732,"Bonner, Dana",6 Fairway Street ,Hixson,TN,37343,
733,"York, Terry",90 Shipley Drive ,Hobart,IN,46342,
734,"Patrick, Jayson",217 Jockey Hollow Dr. ,Hoboken,NJ,07030,
735,"Guerra, Matthew",404 Woodsman Lane ,Holly Springs,NC,27540,
736,"Vaughan, Cornell",691 Arch Ave. ,Holyoke,MA,01040,
737,"Maddox, Foster",745 E. Bayberry Drive ,Homestead,FL,33030,
738,"Perry, Antwan",8718 Wintergreen Street ,Honolulu,HI,96815,
739,"Bennett, Son",8243 Woodside Drive ,Huntersville,NC,28078,
740,"Frye, Rickey",259 E. Fulton Rd. ,Huntington Station,NY,11746,
741,"Vaughan, Lucas",625 Walt Whitman St. ,Huntington,NY,11743,
742,"Casey, Jeromy",125 Boston Street ,Huntley,IL,60142,
743,"Rhodes, Horace",6 Glenridge Street ,Hyde Park,MA,02136,
744,"Kirk, Graig",999 Lakewood St. ,Indian Trail,NC,28079,
745,"Simon, Hyman",Unit 271 ,Irvington,NJ,07111,
746,"Hansen, Kenny",7 Gainsway St. ,Jacksonville,NC,28540,
747,"Herring, Tracy",23 NE. Bank Street ,Jamaica Plain,MA,02130,
748,"Head, Eloy",51 Elizabeth Lane ,Jamaica,NY,11432,
749,"Marks, Dewitt",93 South State Dr. ,Jeffersonville,IN,47130,
750,"Harrington, Austin",70 West Sunset St. ,Jupiter,FL,33458,
751,"Murphy, Jewell",597 East Leatherwood Ave. ,Kalispell,MT,59901,
752,"Avila, Howard",8642 Lookout Dr. ,Kearny,NJ,07032,
753,"Boyle, Kareem",826 Pine St. ,Kennesaw,GA,30144,
754,"Gibbs, Trenton",459 E. Lantern Street ,Kennewick,WA,99337,
755,"Stanley, Willis",670 West Edgewater St. ,Kenosha,WI,53140,
756,"Baldwin, Rick",27 Woodland St. ,Key West,FL,33040,
757,"Baxter, Otha",7407 Westminster Drive ,Kings Mountain,NC,28086,
758,"Macias, Christoper",7447 West Williams Avenue ,Klamath Falls,OR,97603,
759,"Faulkner, Quinn",Unit 5 ,Knoxville,TN,37918,
760,"Sellers, David",583 Bridgeton St. ,Kokomo,IN,46901,
761,"Johnston, Juan",863 Greenrose Drive ,La Crosse,WI,54601,
762,"Roman, Connie",7883 West Helen St. ,Lady Lake,FL,32159,
763,"Maldonado, Lawerence",8002 Pearl Drive ,Lagrange,GA,30240,
764,"Frye, Judson",8569 West Greenview St. ,Lake Charles,LA,70605,
765,"Newman, Terrance",69 West Del Monte St. ,Lake In The Hills,IL,60156,
766,"Lester, Sol",38 Old Berkshire St. ,Lakewood,NJ,08701,
767,"Sargent, Andreas",7086 Leatherwood Drive ,Land O Lakes,FL,34639,
768,"Walter, Guy",7619 Amherst Lane ,Lansing,MI,48910,
769,"Hardy, Tim",40 Hickory Court ,Largo,FL,33771,
770,"Munoz, Elliott",346 Poplar St. ,Laurel,MD,20707,
771,"Wiley, Leopoldo",9509 Pierce St. ,Lawndale,CA,90260,
772,"Lowe, Justin",957 Country St. ,Lawrenceville,GA,30043,
773,"Flores, Roderick",7927 North Leeton Ridge St. ,Leland,NC,28451,
774,"Guthrie, Moises",8 Gainsway Ave. ,Lenoir,NC,28645,
775,"Becker, Courtney",88 Hall St. ,Leominster,MA,01453,
776,"Pitts, Stanford",161 Nicolls Lane ,Libertyville,IL,60048,
777,"Nelson, Vincenzo",69 Linden Ave. ,Lindenhurst,NY,11757,
778,"Wood, Charles",8095 N. Race Dr. ,Lititz,PA,17543,
779,"Bowman, Valentine",928 Arch Ave. ,Littleton,CO,80123,
780,"King, Luke",3 West Warren Rd. ,Livonia,MI,48150,
781,"Mcintyre, Ivan",36C Rockland Dr. ,Londonderry,NH,03053,
782,"Nieves, Earle",8855 Ryan St. ,Longview,TX,75604,
783,"Jordan, Stewart",8823 Maiden St. ,Longwood,FL,32779,
784,"Nash, Darnell",900 Market St. ,Los Angeles,CA,90008,
785,"Maddox, George",8947 Ashley Ave. ,Lowell,MA,01851,
786,"Rosa, Elijah",7399 Gates Dr. ,Loxahatchee,FL,33470,
787,"Russell, Emanuel",53 Smith Store Ave. ,Lynnwood,WA,98037,
788,"Oneill, Elroy",9868 Orange Dr. ,Macomb,MI,48042,
789,"Pearson, Emil",125 Valley Farms Dr. ,Madisonville,KY,42431,
790,"William, Timothy",65 Beacon Drive ,Manchester,NH,03102,
791,"Saunders, Edmund",426 Plumb Branch St. ,Mansfield,MA,02048,
792,"Kelly, Sanford",9002 West Hartford Ave. ,Marcus Hook,PA,19061,
793,"Hurley, Emil",528 Lancaster St. ,Marietta,GA,30008,
794,"Delaney, Johnathon",27 Ocean Lane ,Marlton,NJ,08053,
795,"Grant, Hipolito",7923 Mulberry Road ,Marshfield,WI,54449,
796,"Clemons, Tom",8447 Joy Ridge St. ,Marysville,OH,43040,
797,"Ayers, Harris",29 Pawnee St. ,Maryville,TN,37803,
798,"Moran, Randal",2 Courtland St. ,Mason City,IA,50401,
799,"Cannon, Alphonse",80 Cypress Ave. ,Maspeth,NY,11378,
800,"Knox, Thaddeus",624 Overlook St. ,Massillon,OH,44646,
801,"Pate, Wyatt",7839 Hilltop Lane ,Matawan,NJ,07747,
802,"Vinson, Sidney",8548 Del Monte Ave. ,Matthews,NC,28104,
803,"Peters, Edwardo",33 Pumpkin Hill Avenue ,Mcallen,TX,78501,
804,"Hancock, Lupe",87 Ocean St. ,Melrose,MA,02176,
805,"Harrell, Jerald",818 Roosevelt Avenue ,Merrimack,NH,03054,
806,"Leonard, Rickie",8 Birch Hill St. ,Miami Gardens,FL,33056,
807,"Conner, Curtis",8961 Thatcher St. ,Middle River,MD,21220,
808,"Lester, Darnell",7412 Manor St. ,Midland,MI,48640,
809,"Sheppard, Santos",62 Mulberry Ave. ,Midlothian,VA,23112,
810,"Martin, Orville",894 Grandrose St. ,Milton,MA,02186,
811,"Macias, Micah",723 Fremont Ave. ,Milwaukee,WI,53204,
812,"Reed, Douglas",872 Glenholme Rd. ,Missoula,MT,59801,
813,"Schultz, Donte",8677 Pineknoll Street ,Mokena,IL,60448,
814,"Petersen, Oliver",694 Stillwater Ave. ,Monroe Township,NJ,08831,
815,"Pace, Arnoldo",756 Penn Court ,Monroeville,PA,15146,
816,"Cooper, Ron",8407 Middle River Court ,Montgomery Village,MD,20886,
817,"Olsen, Mac",91 Circle St. ,Morgantown,WV,26508,
818,"Noble, Jospeh",7971 East Pineknoll Dr. ,Morrisville,PA,19067,
819,"Grant, Son",9016 West Court ,Morton Grove,IL,60053,
820,"Farrell, Jarrett",289 S. Bank Ave. ,Moses Lake,WA,98837,
821,"Douglas, Saul",727 Oakland St. ,Mount Holly,NJ,08060,
822,"Simpson, Wilbert",108 N. Woodsman Rd. ,Mount Vernon,NY,10550,
823,"Jacobs, Jewell",10 Galvin St. ,Mountain View,CA,94043,
824,"Hurley, Nathaniel",7841 Thomas St. ,Muncie,IN,47302,
825,"Gordon, Dusty",16 Plumb Branch Lane ,Murfreesboro,TN,37128,
826,"Jensen, Dee",812 Buckingham Court ,Muskego,WI,53150,
827,"Duffy, Cyril",51 South Holly St. ,Muskegon,MI,49441,
828,"Mckay, Troy",90 W. Woodsman Street ,Myrtle Beach,SC,29577,
829,"Barrett, Oliver",665 Garden Ave. ,Naples,FL,34116,
830,"Gillespie, Carmine",49 Bald Hill Street ,Nashville,TN,37205,
831,"Sims, Len",9292 N. Gates Street ,Natchez,MS,39120,
832,"Hays, Myles",8077 Glen Eagles Rd. ,New Albany,IN,47150,
833,"Blanchard, Preston",86 Airport Street ,New Brunswick,NJ,08901,
834,"Gibson, Elroy",121 Cross Ave. ,New Kensington,PA,15068,
835,"Snow, Osvaldo",8890 Blackburn Drive ,New Rochelle,NY,10801,
836,"Poole, Shannon",23 Hanover Lane ,Newnan,GA,30263,
837,"Donaldson, Pablo",62 Marconi Dr. ,Newtown,PA,18940,
838,"Burris, Norberto",6 W. Mammoth Rd. ,Noblesville,IN,46060,
839,"Alston, Frankie",9007 Carriage Road ,Norfolk,VA,23503,
840,"Schultz, Rodrigo",9062 School Ave. ,North Andover,MA,01845,
841,"Cummings, Myles",2 E. Newbridge Dr. ,North Attleboro,MA,02760,
842,"Estrada, Lincoln",61 Ketch Harbour Court ,North Haven,CT,06473,
843,"Shelton, Craig",7833 Taylor St. ,Norwood,MA,02062,
844,"Williamson, Clifton",200 Garfield St. ,Oak Forest,IL,60452,
845,"Hendrix, Ali",543 Newport St. ,Oak Ridge,TN,37830,
846,"Sawyer, Jesse",7768 Howard Avenue ,Oakland,CA,94603,
847,"Kennedy, Miguel",5 Harvard Drive ,Ocoee,FL,34761,
848,"Dillon, Genaro",8018 Bayport St. ,Oklahoma City,OK,73112,
849,"Simmons, Monroe",597 Henry Smith Court ,Olive Branch,MS,38654,
850,"Branch, Emory",7344 Oak Drive ,Olympia,WA,98512,
851,"Greene, Frances",68 S. Hudson St. ,Ooltewah,TN,37363,
852,"Preston, Willis",9033 Argyle St. ,Osseo,MN,55311,
853,"Zamora, Lino",202 Stillwater St. ,Oswego,NY,13126,
854,"Frye, Milan",8015 Walnutwood St. ,Ottumwa,IA,52501,
855,"Gilbert, Kent",65 Woodland St. ,Palatine,IL,60067,
856,"Woodward, Mervin",27 Ashley Court ,Palmetto,FL,34221,
857,"Brady, Stan",845 Logan Drive ,Parkersburg,WV,26101,
858,"Weaver, Owen",9621 Rockland St. ,Parkville,MD,21234,
859,"Randolph, Marcelo",309 W. Myrtle Circle ,Parlin,NJ,08859,
860,"Pearson, Russel",7103 Hall Dr. ,Pataskala,OH,43062,
861,"Hester, Loren",6 Prince St. ,Patchogue,NY,11772,
862,"Vaughn, Benny",184 Kingston Ave. ,Paterson,NJ,07501,
863,"Frost, Theo",8724 Berkshire St. ,Peoria,IL,61604,
864,"Hancock, Branden",4 Deerfield St. ,Perkasie,PA,18944,
865,"Valenzuela, Denver",7486 Gonzales Dr. ,Perrysburg,OH,43551,
866,"Horne, Trey",42 Buckingham St. ,Pickerington,OH,43147,
867,"Burks, Elliott",9041 Arrowhead Street ,Pikesville,MD,21208,
868,"Henderson, Humberto",67 Griffin Lane ,Piscataway,NJ,08854,
869,"Deleon, Zackary",683 Monroe Street ,Plattsburgh,NY,12901,
870,"Christensen, Clint",7805 Delaware Avenue ,Pomona,CA,91768,
871,"Terry, Adalberto",155 Hawthorne Dr. ,Pompano Beach,FL,33060,
872,"Zamora, Darrel",256 Manor Station St. ,Port Charlotte,FL,33952,
873,"Craft, Lincoln",8571 Franklin Street ,Port Chester,NY,10573,
874,"Forbes, Logan",7 Shore Street ,Port Jefferson Station,NY,11776,
875,"Lang, Rhett",8676 Elizabeth Street ,Port Richey,FL,34668,
876,"Horn, Jamel",8 Mayflower St. ,Portsmouth,VA,23703,
877,"Mercer, Donald",9995 S. Poor House St. ,Pottstown,PA,19464,
878,"Powers, Rayford",41 Rockcrest Lane ,Powder Springs,GA,30127,
879,"Ewing, Jewell",8025 Belmont Drive ,Prattville,AL,36067,
880,"Dorsey, Edmundo",813 Middle River St. ,Prior Lake,MN,55372,
881,"Willis, Chuck",197C S. Beaver Ridge St. ,Quakertown,PA,18951,
882,"Mccray, Clark",8635 East Glen Eagles Rd. ,Racine,WI,53402,
883,"Gaines, Jerome",93 Littleton Ave. ,Raeford,NC,28376,
884,"Peters, Rusty",42 Durham St. ,Rahway,NJ,07065,
885,"Strickland, Brian",951 Kent Court ,Randolph,MA,02368,
886,"Harding, Valentine",Apt F ,Redford,MI,48239,
887,"Leon, Rodney",244 Myrtle Ave. ,Redondo Beach,CA,90278,
888,"Foley, Federico",597 Leeton Ridge Street ,Reidsville,NC,27320,
889,"Young, Francisco",9678 Lookout Street ,Reston,VA,20191,
890,"Farrell, Ismael",8234 Santa Clara Street ,Revere,MA,02151,
891,"Sargent, Percy",64 Pierce Lane ,Reynoldsburg,OH,43068,
892,"Avila, Leopoldo",9433 Ryan Drive ,Richardson,TX,75080,
893,"Bray, Greg",514 Arnold Ave. ,Richmond Hill,NY,11418,
894,"Mitchell, Donte",54 Overlook St. ,Riverview,FL,33569,
895,"Shepard, Elwood",519 Holly Drive ,Roanoke,VA,24012,
896,"Hanson, Ken",42 Griffin Avenue ,Rochester,NY,14606,
897,"Tanner, Emmitt",856 Hill Ave. ,Rockville,MD,20850,
898,"Sheppard, Casey",8067 Gates Street ,Romulus,MI,48174,
899,"Hurst, Antonio",623 W. Foster St. ,Rosedale,NY,11422,
900,"Lee, Mikel",37 Halifax Street ,Rosemount,MN,55068,
901,"Dalton, Toney",47 Rockledge Street ,Roswell,GA,30075,
902,"Johnson, Mervin",7604 Glendale St. ,Roy,UT,84067,
903,"Mcdonald, Arron",9825 Ashley Ave. ,Royal Oak,MI,48067,
904,"Castro, Coy",844 East Ann St. ,Saint Joseph,MI,49085,
905,"Klein, Buford",9343 Philmont Street ,Saint Louis,MO,63109,
906,"Livingston, Gerald",209 East Howard Ave. ,Salem,MA,01970,
907,"Sheppard, Junior",309 Oakland Street ,Salisbury,MD,21801,
908,"Ward, Darrel",7 Canal St. ,San Antonio,TX,78213,
909,"Brewer, Ray",953 Summerhouse Dr. ,San Lorenzo,CA,94580,
910,"Rodriquez, Ramiro",7368 Carpenter Avenue ,Santa Monica,CA,90403,
911,"Castaneda, Joaquin",95 Roberts Drive ,Satellite Beach,FL,32937,
912,"Francis, Tyree",7421 Locust St. ,Scarsdale,NY,10583,
913,"Bartlett, Horacio",97 Campfire Rd. ,Sebastian,FL,32958,
914,"Castillo, Kip",64 Orange St. ,Selden,NY,11784,
915,"Haley, Eugenio",610 W. Sierra Street ,Sevierville,TN,37876,
916,"Conley, Clint",8001 Old York Rd. ,Sewell,NJ,08080,
917,"Oneal, Deandre",1 Wayne Dr. ,Seymour,IN,47274,
918,"Weber, Lorenzo",158 South James St. ,Shepherdsville,KY,40165,
919,"Dickson, Marcos",9678 53rd Dr. ,Simpsonville,SC,29680,
920,"Harrison, Malik",51 East White Ave. ,Sioux City,IA,51106,
921,"Brooks, Nolan",7959 Gartner Ave. ,Skokie,IL,60076,
922,"Ayala, Rickey",8 Longbranch Street ,Snellville,GA,30039,
923,"Freeman, Charley",8215 N. Roosevelt St. ,Soddy Daisy,TN,37379,
924,"Trevino, Marcel",475 Shirley Ave. ,South Ozone Park,NY,11420,
925,"Hull, William",81 North Pilgrim Lane ,South Plainfield,NJ,07080,
926,"Vance, Benedict",7112 Ohio Rd. ,South Richmond Hill,NY,11419,
927,"Bender, Jordan",7599 E. Riverside St. ,Southaven,MS,38671,
928,"Powers, Oren",522 Henry St. ,State College,PA,16801,
929,"Castaneda, Maynard",343 Elmwood Street ,Stillwater,MN,55082,
930,"Kidd, Malik",17 Rockville Rd. ,Streamwood,IL,60107,
931,"Baker, Numbers",185 Old Hillcrest St. ,Strongsville,OH,44136,
932,"Vasquez, Wilber",9637 Railroad Ave. ,Stroudsburg,PA,18360,
933,"Cline, Harlan",285 Marsh Court ,Suffolk,VA,23434,
934,"Schneider, Brant",85 Roosevelt Dr. ,Suitland,MD,20746,
935,"Mathis, Ernest",94 Park St. ,Sun City,AZ,85351,
936,"Tesla Corporation, The",51 Bridle St. ,Sun Prairie,WI,53590,
937,"Mckenzie, Dino",4 Oxford St. ,Sunnyside,NY,11104,
938,"Valencia, Gregorio",158 N. Paris Hill Lane ,Tallahassee,FL,32303,
939,"Mcdowell, Harvey",621 Broad St. ,Taylors,SC,29687,
940,"Carlson, Raphael",7918 Proctor St. ,The Villages,FL,32162,
941,"Fernandez, Bryant",73 E. Catherine St. ,Thibodaux,LA,70301,
942,"Simon, Jared",9110 Columbia Road ,Thomasville,NC,27360,
943,"Sandoval, Florencio",7390 Old Lancaster Ave. ,Thornton,CO,80241,
944,"Perkins, Dylan",173 Essex Street ,Toms River,NJ,08753,
945,"Kennedy, Alfonso",53 Deerfield St. ,Tonawanda,NY,14150,
946,"Hewitt, Elroy",37 Canterbury Ave. ,Torrance,CA,90505,
947,"Miranda, Chas",35 Third Dr. ,Troy,NY,12180,
948,"Stark, Gail",36 Lafayette St. ,Trumbull,CT,06611,
949,"Whitaker, Hal",285 Kent Circle ,Trussville,AL,35173,
950,"Peters, Woodrow",7961 Roosevelt Lane ,Tuscaloosa,AL,35405,
951,"Spencer, Thanh",565 Talbot St. ,Twin Falls,ID,83301,
952,"Mullins, Allen",9096 Old Valley Farms St. ,Upper Darby,PA,19082,
953,"Merritt, Son",523 Garfield Ave. ,Valley Stream,NY,11580,
954,"Powers, Cedrick",15 Colonial Ave. ,Valparaiso,IN,46383,
955,"Roach, Stefan",8637 Wakehurst Ave. ,Vernon Hills,IL,60061,
956,"Harvey, Rosendo",25 South 6th Drive ,Vernon Rockville,CT,06066,
957,"Nixon, Pat",102 S. Glenlake Street ,Vicksburg,MS,39180,
958,"Allen, Clay",8796 8th Drive ,Villa Rica,GA,30180,
959,"Lowe, Marco",43 Rockville Lane ,Vincentown,NJ,08088,
960,"Orr, Austin",29 Sussex Ave. ,Vineland,NJ,08360,
961,"Morales, Lawrence",568 Crescent Avenue ,Virginia Beach,VA,23451,
962,"Norman, Jonah",994 Newport Street ,Wake Forest,NC,27587,
963,"Mercer, Jeffrey",9539 W. Arch St. ,Wakefield,MA,01880,
964,"Buckner, Nestor",339 Yukon St. ,Wallingford,CT,06492,
965,"Ross, Cesar",7652 University St. ,Waltham,MA,02453,
966,"Acosta, Jeromy",463 W. Trout Ave. ,Wappingers Falls,NY,12590,
967,"Walton, Shelton",3 Fairway Avenue ,Warner Robins,GA,31088,
968,"Lee, Eddy",134 Amerige Court ,Warren,MI,48089,
969,"Bailey, Dirk",28 Manor Ave. ,Waterloo,IA,50701,
970,"Guerrero, Wiley",460 Central Road ,Waukegan,IL,60085,
971,"Fischer, Felipe",588 Wood Road ,Webster,NY,14580,
972,"Head, Lesley",693 Strawberry St. ,West Bend,WI,53095,
973,"Rogers, Wilford",8465 Lafayette Drive ,West Chester,PA,19380,
974,"Carney, Raphael",473 Lake Street ,West Fargo,ND,58078,
975,"Mosley, Virgil",9131 Harvey Ave. ,West Islip,NY,11795,
976,"Clayton, Morgan",240 Rockcrest Street ,West New York,NJ,07093,
977,"Conrad, Erin",7328 Rockland Drive ,West Roxbury,MA,02132,
978,"Martin, Darius",330 Harvard Street ,West Springfield,MA,01089,
979,"Carter, Dirk",9615 St Paul St. ,West Warwick,RI,02893,
980,"Washington, Brandon",55 Locust Avenue ,Westerville,OH,43081,
981,"Morris, Javier",7847 Broad Street ,Westfield,MA,01085,
982,"Pacheco, John",180 Berkshire Road ,Westland,MI,48185,
983,"Stout, Xavier",8 Ashley St. ,Westminster,MD,21157,
984,"Powell, Mitch",9356 Nicolls St. ,Westmont,IL,60559,
985,"Hebert, Leo",8262 Ashley St. ,Westwood,NJ,07675,
986,"Horton, Fabian",8313 Pendergast St. ,Wheaton,IL,60187,
987,"Tyson, Leigh",527 Golden Star Drive ,Whitehall,PA,18052,
988,"Leon, Blaine",9829 San Carlos Court ,Wilmette,IL,60091,
989,"Yang, Aldo",41 Saxton Road ,Wilmington,MA,01887,
990,"Hutchinson, Marty",91 Mechanic Street ,Winchester,VA,22601,
991,"Clarke, Randal",7154 8th Dr. ,Windermere,FL,34786,
992,"Bray, James",7182 Gonzales Avenue ,Winter Haven,FL,33880,
993,"Hancock, Bradly",606 Cemetery St. ,Winter Park,FL,32792,
994,"Cantrell, Zachary",686 Hillside St. ,Woonsocket,RI,02895,
995,"Stewart, Chad",591 Lincoln St. ,Yakima,WA,98908,
996,"Kirkland, Milo",883 Tarkiln Hill St. ,York,PA,17402,
997,"Walsh, Dusty",388 Second Dr. ,Yorktown Heights,NY,10598,
998,"Payne, Danny",37 Lees Creek Drive ,Yorktown,VA,23693,
999,"George, Orlando",922 York Lane ,Zionsville,IN,46077,